STARLINK-2646
1 28642C 21044E   21325.11458186 -.00001013  00000-0 -67880-4 0  3255
2 28642  53.0546 327.7001 0001761  59.3878  46.2601 15.06401152    19
